CCSDS_OMM_VERS = 2.0
CREATION_DATE  = 
ORIGINATOR     = 

OBJECT_NAME    = DELTA 2 R/B(1)
OBJECT_ID      = 1990-008B
CENTER_NAME    = EARTH
REF_FRAME      = TEME
TIME_SYSTEM    = UTC
MEAN_ELEMENT_THEORY = SGP/SGP4

EPOCH          = 2025-12-12T19:34:19.394400
MEAN_MOTION    = 15.45218530
ECCENTRICITY   = .01114717
INCLINATION    = 35.6074
RA_OF_ASC_NODE = 20.0447
ARG_OF_PERICENTER = 179.3001
MEAN_ANOMALY   = 180.7903

EPHEMERIS_TYPE = 0
CLASSIFICATION_TYPE = U
NORAD_CAT_ID   = 20453
ELEMENT_SET_NO = 999
REV_AT_EPOCH   = 91264
BSTAR          = .83187507E-3
MEAN_MOTION_DOT = .52065E-3
MEAN_MOTION_DDOT = 0

CCSDS_OMM_VERS = 2.0
CREATION_DATE  = 
ORIGINATOR     = 

OBJECT_NAME    = COSMOS 2058
OBJECT_ID      = 1990-010A
CENTER_NAME    = EARTH
REF_FRAME      = TEME
TIME_SYSTEM    = UTC
MEAN_ELEMENT_THEORY = SGP/SGP4

EPOCH          = 2025-12-12T21:22:13.868256
MEAN_MOTION    = 15.10471839
ECCENTRICITY   = .00083251
INCLINATION    = 82.4664
RA_OF_ASC_NODE = 132.8818
ARG_OF_PERICENTER = 272.3587
MEAN_ANOMALY   = 87.6689

EPHEMERIS_TYPE = 0
CLASSIFICATION_TYPE = U
NORAD_CAT_ID   = 20465
ELEMENT_SET_NO = 999
REV_AT_EPOCH   = 92913
BSTAR          = .44952567E-3
MEAN_MOTION_DOT = .7431E-4
MEAN_MOTION_DDOT = 0

CCSDS_OMM_VERS = 2.0
CREATION_DATE  = 
ORIGINATOR     = 

OBJECT_NAME    = SL-14 R/B
OBJECT_ID      = 1990-010B
CENTER_NAME    = EARTH
REF_FRAME      = TEME
TIME_SYSTEM    = UTC
MEAN_ELEMENT_THEORY = SGP/SGP4

EPOCH          = 2025-12-13T00:21:57.695904
MEAN_MOTION    = 14.83471652
ECCENTRICITY   = .00187424
INCLINATION    = 82.5019
RA_OF_ASC_NODE = 348.7882
ARG_OF_PERICENTER = 222.1890
MEAN_ANOMALY   = 137.7884

EPHEMERIS_TYPE = 0
CLASSIFICATION_TYPE = U
NORAD_CAT_ID   = 20466
ELEMENT_SET_NO = 999
REV_AT_EPOCH   = 91563
BSTAR          = .83089437E-4
MEAN_MOTION_DOT = .708E-5
MEAN_MOTION_DDOT = 0

CCSDS_OMM_VERS = 2.0
CREATION_DATE  = 
ORIGINATOR     = 

OBJECT_NAME    = SL-14 R/B
OBJECT_ID      = 1990-018B
CENTER_NAME    = EARTH
REF_FRAME      = TEME
TIME_SYSTEM    = UTC
MEAN_ELEMENT_THEORY = SGP/SGP4

EPOCH          = 2025-12-12T22:47:37.840992
MEAN_MOTION    = 14.82047031
ECCENTRICITY   = .00169786
INCLINATION    = 82.5210
RA_OF_ASC_NODE = 304.1681
ARG_OF_PERICENTER = 22.6783
MEAN_ANOMALY   = 337.5177

EPHEMERIS_TYPE = 0
CLASSIFICATION_TYPE = U
NORAD_CAT_ID   = 20511
ELEMENT_SET_NO = 999
REV_AT_EPOCH   = 90973
BSTAR          = .99471174E-4
MEAN_MOTION_DOT = .815E-5
MEAN_MOTION_DDOT = 0

CCSDS_OMM_VERS = 2.0
CREATION_DATE  = 
ORIGINATOR     = 

OBJECT_NAME    = HST
OBJECT_ID      = 1990-037B
CENTER_NAME    = EARTH
REF_FRAME      = TEME
TIME_SYSTEM    = UTC
MEAN_ELEMENT_THEORY = SGP/SGP4

EPOCH          = 2025-12-12T23:42:45.927648
MEAN_MOTION    = 15.28057436
ECCENTRICITY   = .00017847
INCLINATION    = 28.4685
RA_OF_ASC_NODE = 270.7996
ARG_OF_PERICENTER = 242.3546
MEAN_ANOMALY   = 117.6868

EPHEMERIS_TYPE = 0
CLASSIFICATION_TYPE = U
NORAD_CAT_ID   = 20580
ELEMENT_SET_NO = 999
REV_AT_EPOCH   = 76003
BSTAR          = .35884338E-3
MEAN_MOTION_DOT = .10337E-3
MEAN_MOTION_DDOT = 0

CCSDS_OMM_VERS = 2.0
CREATION_DATE  = 
ORIGINATOR     = 

OBJECT_NAME    = SL-16 R/B
OBJECT_ID      = 1990-046B
CENTER_NAME    = EARTH
REF_FRAME      = TEME
TIME_SYSTEM    = UTC
MEAN_ELEMENT_THEORY = SGP/SGP4

EPOCH          = 2025-12-12T22:59:29.961024
MEAN_MOTION    = 14.15001286
ECCENTRICITY   = .00118301
INCLINATION    = 70.9990
RA_OF_ASC_NODE = 120.0629
ARG_OF_PERICENTER = 72.7442
MEAN_ANOMALY   = 287.4975

EPHEMERIS_TYPE = 0
CLASSIFICATION_TYPE = U
NORAD_CAT_ID   = 20625
ELEMENT_SET_NO = 999
REV_AT_EPOCH   = 83612
BSTAR          = -.14782973E-4
MEAN_MOTION_DOT = -.76E-6
MEAN_MOTION_DDOT = 0

CCSDS_OMM_VERS = 2.0
CREATION_DATE  = 
ORIGINATOR     = 

OBJECT_NAME    = COSMOS 2084
OBJECT_ID      = 1990-055A
CENTER_NAME    = EARTH
REF_FRAME      = TEME
TIME_SYSTEM    = UTC
MEAN_ELEMENT_THEORY = SGP/SGP4

EPOCH          = 2025-12-12T23:12:02.325312
MEAN_MOTION    = 15.05021515
ECCENTRICITY   = .00316584
INCLINATION    = 62.7907
RA_OF_ASC_NODE = 271.2197
ARG_OF_PERICENTER = 174.6697
MEAN_ANOMALY   = 185.4747

EPHEMERIS_TYPE = 0
CLASSIFICATION_TYPE = U
NORAD_CAT_ID   = 20663
ELEMENT_SET_NO = 999
REV_AT_EPOCH   = 92326
BSTAR          = .33239934E-3
MEAN_MOTION_DOT = .4592E-4
MEAN_MOTION_DDOT = 0

CCSDS_OMM_VERS = 2.0
CREATION_DATE  = 
ORIGINATOR     = 

OBJECT_NAME    = SL-6 R/B(2)
OBJECT_ID      = 1990-055D
CENTER_NAME    = EARTH
REF_FRAME      = TEME
TIME_SYSTEM    = UTC
MEAN_ELEMENT_THEORY = SGP/SGP4

EPOCH          = 2025-12-12T23:12:21.527712
MEAN_MOTION    = 15.03077042
ECCENTRICITY   = .001275
INCLINATION    = 62.7827
RA_OF_ASC_NODE = 188.6439
ARG_OF_PERICENTER = 309.0905
MEAN_ANOMALY   = 50.9060

EPHEMERIS_TYPE = 0
CLASSIFICATION_TYPE = U
NORAD_CAT_ID   = 20666
ELEMENT_SET_NO = 999
REV_AT_EPOCH   = 92515
BSTAR          = .25899531E-3
MEAN_MOTION_DOT = .3318E-4
MEAN_MOTION_DDOT = 0

CCSDS_OMM_VERS = 2.0
CREATION_DATE  = 
ORIGINATOR     = 

OBJECT_NAME    = SL-8 R/B
OBJECT_ID      = 1990-078B
CENTER_NAME    = EARTH
REF_FRAME      = TEME
TIME_SYSTEM    = UTC
MEAN_ELEMENT_THEORY = SGP/SGP4

EPOCH          = 2025-12-13T00:00:39.859776
MEAN_MOTION    = 14.85953462
ECCENTRICITY   = .03720197
INCLINATION    = 82.9052
RA_OF_ASC_NODE = 329.0774
ARG_OF_PERICENTER = 305.0357
MEAN_ANOMALY   = 51.6472

EPHEMERIS_TYPE = 0
CLASSIFICATION_TYPE = U
NORAD_CAT_ID   = 20775
ELEMENT_SET_NO = 999
REV_AT_EPOCH   = 79641
BSTAR          = .87241366E-3
MEAN_MOTION_DOT = .28189E-3
MEAN_MOTION_DDOT = 0

CCSDS_OMM_VERS = 2.0
CREATION_DATE  = 
ORIGINATOR     = 

OBJECT_NAME    = SL-8 R/B
OBJECT_ID      = 1991-006B
CENTER_NAME    = EARTH
REF_FRAME      = TEME
TIME_SYSTEM    = UTC
MEAN_ELEMENT_THEORY = SGP/SGP4

EPOCH          = 2025-12-12T18:00:46.266336
MEAN_MOTION    = 13.77489918
ECCENTRICITY   = .00212214
INCLINATION    = 82.9428
RA_OF_ASC_NODE = 234.7049
ARG_OF_PERICENTER = 279.8542
MEAN_ANOMALY   = 139.9016

EPHEMERIS_TYPE = 0
CLASSIFICATION_TYPE = U
NORAD_CAT_ID   = 21088
ELEMENT_SET_NO = 999
REV_AT_EPOCH   = 75210
BSTAR          = .55049645E-4
MEAN_MOTION_DOT = .7E-6
MEAN_MOTION_DDOT = 0

CCSDS_OMM_VERS = 2.0
CREATION_DATE  = 
ORIGINATOR     = 

OBJECT_NAME    = OKEAN-3
OBJECT_ID      = 1991-039A
CENTER_NAME    = EARTH
REF_FRAME      = TEME
TIME_SYSTEM    = UTC
MEAN_ELEMENT_THEORY = SGP/SGP4

EPOCH          = 2025-12-12T16:22:20.332992
MEAN_MOTION    = 15.04117234
ECCENTRICITY   = .0012941
INCLINATION    = 82.5170
RA_OF_ASC_NODE = 61.1026
ARG_OF_PERICENTER = 266.8861
MEAN_ANOMALY   = 93.0885

EPHEMERIS_TYPE = 0
CLASSIFICATION_TYPE = U
NORAD_CAT_ID   = 21397
ELEMENT_SET_NO = 999
REV_AT_EPOCH   = 85195
BSTAR          = .39674979E-3
MEAN_MOTION_DOT = .5533E-4
MEAN_MOTION_DDOT = 0

CCSDS_OMM_VERS = 2.0
CREATION_DATE  = 
ORIGINATOR     = 

OBJECT_NAME    = COSMOS 2151
OBJECT_ID      = 1991-042A
CENTER_NAME    = EARTH
REF_FRAME      = TEME
TIME_SYSTEM    = UTC
MEAN_ELEMENT_THEORY = SGP/SGP4

EPOCH          = 2025-12-12T22:57:50.044608
MEAN_MOTION    = 14.99687526
ECCENTRICITY   = .0012544
INCLINATION    = 82.4959
RA_OF_ASC_NODE = 167.2941
ARG_OF_PERICENTER = 359.3038
MEAN_ANOMALY   = 0.8166

EPHEMERIS_TYPE = 0
CLASSIFICATION_TYPE = U
NORAD_CAT_ID   = 21422
ELEMENT_SET_NO = 999
REV_AT_EPOCH   = 85019
BSTAR          = .21640122E-3
MEAN_MOTION_DOT = .2698E-4
MEAN_MOTION_DDOT = 0

