DELTA 2 R/B(1)          
1 20453U 90008B   25346.81550225  .00052065  00000+0  83188-3 0  9997
2 20453  35.6074  20.0447 0111471 179.3001 180.7903 15.45218530912648
COSMOS 2058             
1 20465U 90010A   25346.89043829  .00007431  00000+0  44953-3 0  9992
2 20465  82.4664 132.8818 0008325 272.3587  87.6689 15.10471839929139
SL-14 R/B               
1 20466U 90010B   25347.01525111  .00000708  00000+0  83089-4 0  9991
2 20466  82.5019 348.7882 0018742 222.1890 137.7884 14.83471652915634
SL-14 R/B               
1 20511U 90018B   25346.94974353  .00000815  00000+0  99471-4 0  9998
2 20511  82.5210 304.1681 0016978  22.6783 337.5177 14.82047031909732
HST                     
1 20580U 90037B   25346.98803157  .00010337  00000+0  35884-3 0  9999
2 20580  28.4685 270.7996 0001784 242.3546 117.6868 15.28057436760030
SL-16 R/B               
1 20625U 90046B   25346.95798566 -.00000076  00000+0 -14783-4 0  9990
2 20625  70.9990 120.0629 0011830  72.7442 287.4975 14.15001286836120
COSMOS 2084             
1 20663U 90055A   25346.96669358  .00004592  00000+0  33240-3 0  9992
2 20663  62.7907 271.2197 0031658 174.6697 185.4747 15.05021515923265
SL-6 R/B(2)             
1 20666U 90055D   25346.96691583  .00003318  00000+0  25900-3 0  9999
2 20666  62.7827 188.6439 0012750 309.0905  50.9060 15.03077042925155
SL-8 R/B                
1 20775U 90078B   25347.00046134  .00028189  00000+0  87241-3 0  9996
2 20775  82.9052 329.0774 0372019 305.0357  51.6472 14.85953462796415
SL-8 R/B                
1 21088U 91006B   25346.75053549  .00000070  00000+0  55050-4 0  9998
2 21088  82.9428 234.7049 0021221 279.8542 139.9016 13.77489918752109
OKEAN-3                 
1 21397U 91039A   25346.68217978  .00005533  00000+0  39675-3 0  9990
2 21397  82.5170  61.1026 0012941 266.8861  93.0885 15.04117234851956
COSMOS 2151             
1 21422U 91042A   25346.95682922  .00002698  00000+0  21640-3 0  9990
2 21422  82.4959 167.2941 0012544 359.3038   0.8166 14.99687526850198
